{
    "links": {
        "self": "http://www.neowsapp.com/rest/v1/neo/3837599?api_key=iIulBulltgU6a56xZRHN4H3l9WmuAYTsLGpBGhQ2"
    },
    "id": "3837599",
    "neo_reference_id": "3837599",
    "name": "(2019 AZ2)",
    "designation": "2019 AZ2",
    "nasa_jpl_url": "http://ssd.jpl.nasa.gov/sbdb.cgi?sstr=3837599",
    "absolute_magnitude_h": 21.6,
    "estimated_diameter": {
        "kilometers": {
            "estimated_diameter_min": 0.1272198785,
            "estimated_diameter_max": 0.2844722965
        },
        "meters": {
            "estimated_diameter_min": 127.2198785394,
            "estimated_diameter_max": 284.4722965033
        },
        "miles": {
            "estimated_diameter_min": 0.0790507431,
            "estimated_diameter_max": 0.1767628354
        },
        "feet": {
            "estimated_diameter_min": 417.3880663071,
            "estimated_diameter_max": 933.3080892598
        }
    },
    "is_potentially_hazardous_asteroid": true,
    "close_approach_data": [
        {
            "close_approach_date": "2018-12-29",
            "close_approach_date_full": "2018-Dec-29 07:10",
            "epoch_date_close_approach": 1546067400000,
            "relative_velocity": {
                "kilometers_per_second": "30.6224765129",
                "kilometers_per_hour": "110240.9154465822",
                "miles_per_hour": "68499.4177117944"
            },
            "miss_distance": {
                "astronomical": "0.0577705103",
                "lunar": "22.4727285067",
                "kilometers": "8642345.289693061",
                "miles": "5370104.3479678018"
            },
            "orbiting_body": "Earth"
        }
    ],
    "orbital_data": {
        "orbit_id": "7",
        "orbit_determination_date": "2019-07-27 14:01:37",
        "first_observation_date": "2019-01-03",
        "last_observation_date": "2019-01-15",
        "data_arc_in_days": 12,
        "observations_used": 93,
        "orbit_uncertainty": "8",
        "minimum_orbit_intersection": ".0342688",
        "jupiter_tisserand_invariant": "2.755",
        "epoch_osculation": "2458490.5",
        "eccentricity": ".8833120414411155",
        "semi_major_axis": "2.459128605805927",
        "inclination": "7.335106602621454",
        "ascending_node_longitude": "83.75586540295608",
        "orbital_period": "1408.543583310188",
        "perihelion_distance": ".2869506968452494",
        "perihelion_argument": "255.2476259826698",
        "aphelion_distance": "4.631306514766605",
        "perihelion_time": "2458441.970128247507",
        "mean_anomaly": "12.40341728712422",
        "mean_motion": ".2555831457866371",
        "equinox": "J2000",
        "orbit_class": {
            "orbit_class_type": "APO",
            "orbit_class_description": "Near-Earth asteroid orbits which cross the Earth’s orbit similar to that of 1862 Apollo",
            "orbit_class_range": "a (semi-major axis) > 1.0 AU; q (perihelion) < 1.017 AU"
        }
    },
    "is_sentry_object": false
}